OBJECT_NAME,OBJECT_ID,EPOCH,MEAN_MOTION,ECCENTRICITY,INCLINATION,RA_OF_ASC_NODE,ARG_OF_PERICENTER,MEAN_ANOMALY,EPHEMERIS_TYPE,CLASSIFICATION_TYPE,NORAD_CAT_ID,ELEMENT_SET_NO,REV_AT_EPOCH,BSTAR,MEAN_MOTION_DOT,MEAN_MOTION_DDOT
ELEKTRO-L 3,2019-095A,2026-06-26T12:54:56.877984,1.00272481,.0001516,0.2811,81.9651,2.5316,99.8706,0,U,44903,999,2380,0,-.85E-6,0
GONETS-M 14,2019-096A,2026-06-27T04:34:59.891808,12.42870092,.0013934,82.5236,78.4390,126.9152,233.3206,0,U,44905,999,29492,.56766E-4,.18E-6,0
GONETS-M 15,2019-096B,2026-06-27T05:17:19.313088,12.42871779,.001537,82.5257,78.8839,149.6075,210.5899,0,U,44906,999,29489,.33576E-3,.57E-6,0
GONETS-M 16,2019-096C,2026-06-27T03:58:54.833088,12.42891668,.0010169,82.5202,77.8652,191.0996,168.9861,0,U,44907,999,29487,-.25473E-3,-.25E-6,0
RS-44 & BREEZE-KM R/B,2019-096E,2026-06-27T04:02:59.688960,12.79749020,.0218477,82.5226,333.0713,120.9258,241.3520,0,U,44909,999,30362,.58243E-5,.15E-6,0
JILIN-1 KUANFU 01,2020-003A,2026-06-27T05:17:46.529952,15.10775892,.0008153,97.5030,251.9802,266.6376,93.3921,0,U,45016,999,35684,.22844E-3,.373E-4,0
XINGYUN-2 01,2020-028A,2026-06-27T03:16:15.717792,15.11845202,.0009543,97.4860,170.3397,159.3700,200.7917,0,U,45602,999,33634,.18266E-3,.3061E-4,0
XINGYUN-2 02,2020-028B,2026-06-27T04:23:20.166720,15.11573268,.0009393,97.5067,183.9989,231.5306,128.5082,0,U,45603,999,33634,.11881E-3,.1953E-4,0
HAIYANG-1D,2020-036A,2026-06-27T03:49:00.537600,14.34177752,.0003865,98.4552,119.6219,106.6751,253.4858,0,U,45721,999,31640,.19622E-3,.507E-5,0
M2 PATHFINDER,2020-037E,2026-06-27T00:31:35.032800,15.04711813,.0012575,97.8135,9.3636,117.8720,242.3781,0,U,45727,999,32697,.22781E-3,.3149E-4,0
GAOFEN DUOMO (GFDM),2020-042A,2026-06-27T04:00:17.358048,14.76892000,.0012111,97.7747,237.6900,46.2595,313.9616,0,U,45856,999,32248,.70979E-4,.45E-5,0
ZIYUAN 3-03 (ZY 3-03),2020-051A,2026-06-27T04:22:13.789920,15.21334265,.0002137,97.2839,245.5836,291.5122,68.5886,0,U,45939,999,32886,.24362E-3,.5388E-4,0
NEMO-HD,2020-061F,2026-06-27T04:05:54.307680,15.44790385,.0001777,97.1921,240.0234,74.2322,285.9122,0,U,46277,999,32352,.2433E-3,.11306E-3,0
NAPA-1,2020-061BA,2026-06-27T04:16:44.626656,15.69329987,.0001741,97.2462,252.6935,178.0722,182.0547,0,U,46320,999,32330,.67473E-3,.79249E-3,0
JILIN-1 GAOFEN 3E,2020-065D,2026-06-27T04:50:37.509792,15.64865134,.001262,97.2243,231.0491,127.0193,233.2223,0,U,46457,999,32132,.73916E-3,.72763E-3,0
JILIN-1 GAOFEN 3F,2020-065E,2026-06-27T04:20:12.274368,15.61950522,.0014108,97.2197,228.3142,115.4486,244.8234,0,U,46458,999,32126,.71687E-3,.62949E-3,0
JILIN-1 GAOFEN 3G,2020-065F,2026-06-26T19:45:26.715168,15.73023044,.00060188,97.2263,234.9189,24.1322,336.0223,0,U,46459,999,32145,.83140138E-3,.114524E-2,0
JILIN-1 GAOFEN 3H,2020-065G,2026-06-27T04:47:30.234336,15.69269810,.0003602,97.2209,231.5746,281.3835,78.7023,0,U,46460,999,32145,.75544E-3,.88643E-3,0
HAIYANG-2C,2020-066A,2026-06-27T05:09:13.887648,13.83376064,.0008496,65.9954,190.3173,237.8058,122.2186,0,U,46469,999,29088,-.19111E-5,-.83E-6,0
HJ-2A,2020-067A,2026-06-27T04:40:35.054688,14.76529441,.0002664,97.8829,256.3307,216.8769,143.2258,0,U,46478,999,30973,.16544E-3,.1103E-4,0
HJ-2B,2020-067B,2026-06-27T05:33:17.159040,14.76568821,.0001515,97.8894,257.3961,100.1597,259.9784,0,U,46479,999,30974,.57122E-4,.349E-5,0
GONETS-M 17,2020-068A,2026-06-27T04:35:15.384192,12.42873702,.0022677,82.4991,341.2781,16.2557,343.9245,0,U,46486,999,26040,.44978E-3,.72E-6,0
GONETS-M 18,2020-068B,2026-06-27T03:42:55.069920,12.42874009,.0019886,82.4945,340.4147,13.0999,347.0593,0,U,46487,999,26038,-.17047E-3,-.14E-6,0
GONETS-M 19,2020-068C,2026-06-27T05:03:13.919328,12.42892233,.001391,82.4969,340.8323,29.1172,331.0681,0,U,46488,999,26049,-.34143E-3,-.37E-6,0
DEKART,2020-068H,2026-06-27T03:57:12.981312,15.37565531,.0007304,97.8737,188.1501,241.4372,118.6137,0,U,46493,999,31730,.33991E-3,.12454E-3,0
NORBI,2020-068J,2026-06-27T05:41:08.420064,15.48870769,.0006149,97.8624,195.0890,203.7037,156.3930,0,U,46494,999,31776,.43186E-3,.23213E-3,0
SALSAT,2020-068K,2026-06-26T22:57:28.471392,15.29932421,.0007823,97.8848,181.6168,266.2984,93.7361,0,U,46495,999,31685,.28601E-3,.8212E-4,0
ICEYE-X6,2020-068M,2026-06-27T05:36:39.424896,15.04576877,.0008948,98.0974,172.3861,64.2886,295.9261,0,U,46497,999,31474,.19943E-3,.2732E-4,0
