ELEKTRO-L 3             
1 44903U 19095A   26177.53815831 -.00000085  00000+0  00000+0 0  9993
2 44903   0.2811  81.9651 0001516   2.5316  99.8706  1.00272481 23801
GONETS-M 14             
1 44905U 19096A   26178.19097097  .00000018  00000+0  56766-4 0  9995
2 44905  82.5236  78.4390 0013934 126.9152 233.3206 12.42870092294927
GONETS-M 15             
1 44906U 19096B   26178.22036242  .00000057  00000+0  33576-3 0  9991
2 44906  82.5257  78.8839 0015370 149.6075 210.5899 12.42871779294899
GONETS-M 16             
1 44907U 19096C   26178.16591242 -.00000025  00000+0 -25473-3 0  9995
2 44907  82.5202  77.8652 0010169 191.0996 168.9861 12.42891668294878
RS-44 & BREEZE-KM R/B   
1 44909U 19096E   26178.16874640  .00000015  00000+0  58243-5 0  9993
2 44909  82.5226 333.0713 0218477 120.9258 241.3520 12.79749020303621
JILIN-1 KUANFU 01       
1 45016U 20003A   26178.22067743  .00003730  00000+0  22844-3 0  9991
2 45016  97.5030 251.9802 0008153 266.6376  93.3921 15.10775892356840
XINGYUN-2 01            
1 45602U 20028A   26178.13629303  .00003061  00000+0  18266-3 0  9995
2 45602  97.4860 170.3397 0009543 159.3700 200.7917 15.11845202336343
XINGYUN-2 02            
1 45603U 20028B   26178.18287230  .00001953  00000+0  11881-3 0  9994
2 45603  97.5067 183.9989 0009393 231.5306 128.5082 15.11573268336349
HAIYANG-1D              
1 45721U 20036A   26178.15903400  .00000507  00000+0  19622-3 0  9990
2 45721  98.4552 119.6219 0003865 106.6751 253.4858 14.34177752316401
M2 PATHFINDER           
1 45727U 20037E   26178.02193325  .00003149  00000+0  22781-3 0  9995
2 45727  97.8135   9.3636 0012575 117.8720 242.3781 15.04711813326978
GAOFEN DUOMO (GFDM)     
1 45856U 20042A   26178.16686757  .00000450  00000+0  70979-4 0  9990
2 45856  97.7747 237.6900 0012111  46.2595 313.9616 14.76892000322480
ZIYUAN 3-03 (ZY 3-03)   
1 45939U 20051A   26178.18210405  .00005388  00000+0  24362-3 0  9996
2 45939  97.2839 245.5836 0002137 291.5122  68.5886 15.21334265328868
NEMO-HD                 
1 46277U 20061F   26178.17076745  .00011306  00000+0  24330-3 0  9991
2 46277  97.1921 240.0234 0001777  74.2322 285.9122 15.44790385323524
NAPA-1                  
1 46320U 20061BA  26178.17829429  .00079249  00000+0  67473-3 0  9990
2 46320  97.2462 252.6935 0001741 178.0722 182.0547 15.69329987323306
JILIN-1 GAOFEN 3E       
1 46457U 20065D   26178.20182303  .00072763  00000+0  73916-3 0  9995
2 46457  97.2243 231.0491 0012620 127.0193 233.2223 15.64865134321320
JILIN-1 GAOFEN 3F       
1 46458U 20065E   26178.18069762  .00062949  00000+0  71687-3 0  9994
2 46458  97.2197 228.3142 0014108 115.4486 244.8234 15.61950522321266
JILIN-1 GAOFEN 3G       
1 46459U 20065F   26177.82322587  .00114524  00000+0  83140-3 0  9996
2 46459  97.2263 234.9189 0006018  24.1322 336.0223 15.73023044321457
JILIN-1 GAOFEN 3H       
1 46460U 20065G   26178.19965549  .00088643  00000+0  75544-3 0  9991
2 46460  97.2209 231.5746 0003602 281.3835  78.7023 15.69269810321459
HAIYANG-2C              
1 46469U 20066A   26178.21474407 -.00000083  00000+0 -19111-5 0  9996
2 46469  65.9954 190.3173 0008496 237.8058 122.2186 13.83376064290883
HJ-2A                   
1 46478U 20067A   26178.19485017  .00001103  00000+0  16544-3 0  9990
2 46478  97.8829 256.3307 0002664 216.8769 143.2258 14.76529441309737
HJ-2B                   
1 46479U 20067B   26178.23144860  .00000349  00000+0  57122-4 0  9993
2 46479  97.8894 257.3961 0001515 100.1597 259.9784 14.76568821309740
GONETS-M 17             
1 46486U 20068A   26178.19115028  .00000072  00000+0  44978-3 0  9998
2 46486  82.4991 341.2781 0022677  16.2557 343.9245 12.42873702260407
GONETS-M 18             
1 46487U 20068B   26178.15480405 -.00000014  00000+0 -17047-3 0  9994
2 46487  82.4945 340.4147 0019886  13.0999 347.0593 12.42874009260386
GONETS-M 19             
1 46488U 20068C   26178.21057777 -.00000037  00000+0 -34143-3 0  9995
2 46488  82.4969 340.8323 0013910  29.1172 331.0681 12.42892233260498
DEKART                  
1 46493U 20068H   26178.16473358  .00012454  00000+0  33991-3 0  9996
2 46493  97.8737 188.1501 0007304 241.4372 118.6137 15.37565531317302
NORBI                   
1 46494U 20068J   26178.23690301  .00023213  00000+0  43186-3 0  9996
2 46494  97.8624 195.0890 0006149 203.7037 156.3930 15.48870769317765
SALSAT                  
1 46495U 20068K   26177.95657953  .00008212  00000+0  28601-3 0  9998
2 46495  97.8848 181.6168 0007823 266.2984  93.7361 15.29932421316852
ICEYE-X6                
1 46497U 20068M   26178.23378964  .00002732  00000+0  19943-3 0  9994
2 46497  98.0974 172.3861 0008948  64.2886 295.9261 15.04576877314743
